[{"OBJECT_NAME":"STARLINK-4428","OBJECT_ID":"2022-105AA","EPOCH":"2026-03-09T15:55:26.931360","MEAN_MOTION":15.01253245,"ECCENTRICITY":0.00025835,"INCLINATION":97.6017,"RA_OF_ASC_NODE":310.2043,"ARG_OF_PERICENTER":56.708,"MEAN_ANOMALY":303.4392,"EPHEMERIS_TYPE":0,"CLASSIFICATION_TYPE":"U","NORAD_CAT_ID":53672,"ELEMENT_SET_NO":999,"REV_AT_EPOCH":19323,"BSTAR":-0.0001200629,"MEAN_MOTION_DOT":-1.6e-5,"MEAN_MOTION_DDOT":0},{"OBJECT_NAME":"PEGASUS DEB","OBJECT_ID":"1994-029ACF","EPOCH":"2026-03-09T05:20:07.680768","MEAN_MOTION":14.35928851,"ECCENTRICITY":0.02972475,"INCLINATION":82.0143,"RA_OF_ASC_NODE":138.1597,"ARG_OF_PERICENTER":90.0358,"MEAN_ANOMALY":326.3453,"EPHEMERIS_TYPE":0,"CLASSIFICATION_TYPE":"U","NORAD_CAT_ID":24973,"ELEMENT_SET_NO":999,"REV_AT_EPOCH":53449,"BSTAR":0.00058141957,"MEAN_MOTION_DOT":2.825e-5,"MEAN_MOTION_DDOT":0}]
